[{"OBJECT_NAME":"STARLINK-32536","OBJECT_ID":"2024-207P","EPOCH":"2026-03-09T22:25:28.688448","MEAN_MOTION":15.2762972,"ECCENTRICITY":0.00019239,"INCLINATION":43.0003,"RA_OF_ASC_NODE":284.3214,"ARG_OF_PERICENTER":274.1329,"MEAN_ANOMALY":85.9303,"EPHEMERIS_TYPE":0,"CLASSIFICATION_TYPE":"U","NORAD_CAT_ID":61925,"ELEMENT_SET_NO":999,"REV_AT_EPOCH":7471,"BSTAR":0.0010205219,"MEAN_MOTION_DOT":0.0002797,"MEAN_MOTION_DDOT":0},{"OBJECT_NAME":"HAWK-11C","OBJECT_ID":"2024-247E","EPOCH":"2026-03-09T12:17:35.407968","MEAN_MOTION":15.2884802,"ECCENTRICITY":0.00059001,"INCLINATION":45.0045,"RA_OF_ASC_NODE":114.8762,"ARG_OF_PERICENTER":329.704,"MEAN_ANOMALY":30.3502,"EPHEMERIS_TYPE":0,"CLASSIFICATION_TYPE":"U","NORAD_CAT_ID":62381,"ELEMENT_SET_NO":999,"REV_AT_EPOCH":6774,"BSTAR":0.00033290115,"MEAN_MOTION_DOT":9.223e-5,"MEAN_MOTION_DDOT":0}]
